#aV2011  3 28  0  0   .00000000      96 DD+AD WGS84 FIT  NGA
## 1629  86400.00000000   900.00000000 55648  .0000000000000
+   32     1  2  3  4  5  6  7  8  9 10 11 12 13 14 15 16 17
+         18 19 20 21 22 23 24 25 26 27 28 29 30 31 32  0  0
+          0  0  0  0  0  0  0  0  0  0  0  0  0  0  0  0  0
+          0  0  0  0  0  0  0  0  0  0  0  0  0  0  0  0  0
+          0  0  0  0  0  0  0  0  0  0  0  0  0  0  0  0  0
++         0  0  0  0  0  0  0  0  0  0  0  0  0  0  0  0  0
++         0  0  0  0  0  0  0  0  0  0  0  0  0  0  0  0  0
++         0  0  0  0  0  0  0  0  0  0  0  0  0  0  0  0  0
++         0  0  0  0  0  0  0  0  0  0  0  0  0  0  0  0  0
++         0  0  0  0  0  0  0  0  0  0  0  0  0  0  0  0  0
%c cc cc ccc ccc cccc cccc cccc cccc ccccc ccccc ccccc ccccc
%c cc cc ccc ccc cccc cccc cccc cccc ccccc ccccc ccccc ccccc
%f  0.0000000  0.000000000  0.00000000000  0.000000000000000
%f  0.0000000  0.000000000  0.00000000000  0.000000000000000
%i    0    0    0    0      0      0      0      0         0
%i    0    0    0    0      0      0      0      0         0
/*      NGA, ST. LOUIS,MO.                                  
/*   EPHEMERIS COMPUTED FROM  3 DAYS OF DATA                
/* CCCCCCCCCCCCCCCCCCCCCCCCCCCCCCCCCCCCCCCCCCCCCCCCCCCCCCCCC
/* CCCCCCCCCCCCCCCCCCCCCCCCCCCCCCCCCCCCCCCCCCCCCCCCCCCCCCCCC
*  2011  3 28 23 45   .00000000                                                 
P  1  10021.405971 -13415.202759  20467.963037   -218.759455                    
V  1  10116.710486  24255.217731  11023.337654      -.026711                    
P  2  -7548.569130  14370.472532  20984.666687    327.603276                    
V  2 -26290.433395  -4929.602504  -6575.077444       .022150                    
P  3   8299.818342 -23954.792921  -7754.813099    694.614927                    
V  3   8231.291158  -5965.635364  29083.742776       .050631                    
P  4 -20422.043136   7774.127227  15124.880963     73.247853                    
V  4 -18834.162392  -5547.419039 -21927.668159       .102933                    
P  5   -459.638690  23491.591284  12261.913902   -136.208084                    
V  5  -7905.302426 -13754.228329  26113.678523      -.058349                    
P  6  13213.290321 -22559.028341  -3815.185606   -189.915018                    
V  6   6050.260102  -1851.829389  30819.095036     -1.186344                    
P  7 -26007.184532  -5700.673241   1606.326367      6.721850                    
V  7   2373.941820  -1823.622299  31832.883422       .009712                    
P  8 -25248.038403   -359.360099  -9070.357410      7.615617                    
V  8 -10719.470417  -3889.283940  29392.051349       .000063                    
P  9  13783.836143  14277.778755 -18204.689870     70.445444                    
V  9 -21883.849690  -2140.075691 -18810.760058       .023299                    
P 10 -11734.674278  11320.836739  20682.905975    -70.106240                    
V 10  -9816.492962 -25037.309497   8418.329055      -.009624                    
P 11 -13765.821870 -13874.107579 -18430.557313   -138.207818                    
V 11  22714.485958  -4002.019472 -13842.844425      -.030431                    
P 12  11322.522485  23806.824811   3971.654562    -15.849828                    
V 12   -414.284498   5425.665367 -31409.558273       .028466                    
P 13 -16262.114253  -2729.334604  20689.729843    277.278086                    
V 13  17977.293513 -19494.443937  11429.564841      -.014533                    
P 14  20822.465771 -13332.439364  -9360.988534    140.483832                    
V 14  -6729.460912  10289.834750 -29271.545567       .023966                    
P 15   2756.820134  18304.470695 -18978.351457   -139.595099                    
V 15 -16322.768706  17943.651596  15090.357688       .030529                    
P 16   2676.203033 -22183.617842  14155.767234   -161.102808                    
V 16   7622.975186  16441.594241  24667.435687      -.027810                    
P 17 -20692.065782  12922.816847 -10090.051049    184.164792                    
V 17   6591.678362 -11617.155379 -28245.537118       .001555                    
P 18  17174.086555   6039.676710 -19154.565819    128.944907                    
V 18   6941.803132  24015.317169  13209.491906       .020181                    
P 19   2189.850389 -19762.487663 -17435.756033   -124.843632                    
V 19  16946.519467 -14599.009486  19009.915908      -.037974                    
P 20 -14490.391425 -21065.377502   7167.060069     48.789168                    
V 20   -397.318670  -9921.683191 -29290.170167       .000915                    
P 21  26369.086115   5305.729125    794.774654   -133.624898                    
V 21  -1079.517356   3028.338118  30693.768314      -.026476                    
P 22  14315.097987  -6754.250994 -21158.244759    151.085957                    
V 22   9285.302218  25757.177314  -2026.034893      -.006752                    
P 23  -7900.702579 -13579.285655  21363.848634    317.040793                    
V 23  18081.428956 -20302.615094  -6550.310140      -.025263                    
P 24 -16465.800575 -14666.687331 -14944.201078    377.107398                    
V 24  19007.242898   2059.260417 -22602.384284       .030468                    
P 25  16782.768011  13724.351293  15342.168415      -.861857                    
V 25   5243.839390  18876.545304 -22583.617177      -.004363                    
P 26  -9539.404226  21613.528622 -12285.133927   -157.520037                    
V 26 -11531.451879   9430.220840  27241.532109      -.102114                    
P 27   8553.672307  14495.335637 -19968.220332    250.226745                    
V 27 -26616.498207  -2363.878309 -12408.099824       .038251                    
P 28 -14746.779837   1964.742317 -21504.294593     27.990673                    
V 28  -8706.980094 -27128.968015   3159.565452       .022983                    
P 29  14536.602297   6169.126740  21432.325508    195.784851                    
V 29 -17572.795931  20539.154167   6069.852031       .027528                    
P 30   6953.596959 -17127.818672  18652.656307    332.726977                    
V 30  10979.976355  22020.894109  15815.182081       .028281                    
P 31  18234.078464  -8724.142672  17545.831426     59.174851                    
V 31  21207.423858   4962.509364 -19598.799562       .050338                    
P 32  -7701.985548 -25647.970774    826.706612   -224.250776                    
V 32   2356.310367  -1374.448131 -31345.140745      -.074927                    
EOF
